sat03673
1 03673U 69010B   20046.89392957  .00000031  00000-0  13484-3 0  9996
2 03673  80.3921 281.3823 0025784 342.4863  28.9007 12.63388968351310
